IONOSFERA-M 4           
1 64877U 25155B   26157.86313874  .00000070  00000+0  51806-4 0  9991
2 64877  98.6019 119.9459 0000701 114.5050 245.6200 14.21486910 44934
MICROCARB               
1 64899U 25156A   26157.47987538  .00000602  00000+0  10291-3 0  9990
2 64899  97.9831 234.8082 0015210 309.6025  50.3839 14.72314846 46396
CO3D 3                  
1 64900U 25156B   26157.65598671  .00005622  00000+0  26261-3 0  9990
2 64900  97.4322 236.5006 0001036 138.6350 221.4964 15.20204026 47939
CO3D 4                  
1 64901U 25156C   26157.59031432  .00005517  00000+0  25761-3 0  9998
2 64901  97.4324 236.4357 0000840  36.5884 323.5408 15.20224457 47926
CO3D 2                  
1 64902U 25156D   26157.75443933  .00003195  00000+0  15071-3 0  9993
2 64902  97.4325 236.4968 0001351 115.1434 244.9941 15.20190573 47940
CO3D 1                  
1 64903U 25156E   26157.75459459  .00005917  00000+0  27625-3 0  9996
2 64903  97.4323 236.4971 0001136 117.4880 242.6470 15.20201366 47949
PRSC-S1                 
1 65055U 25164A   26157.85499043  .00006083  00000+0  41740-3 0  9997
2 65055  41.1316 345.9991 0007626 283.5152  76.4812 15.06362191 46873
SENTINEL-6B             
1 66514U 25264A   26157.70173209 -.00000047  00000+0  61432-4 0  9992
2 66514  66.0383 156.9570 0008063 269.3704  90.6388 12.80929670 25826
CAS500-3                
1 66655U 25274F   26157.39092015  .00001453  00000+0  16291-3 0  9992
2 66655  97.7446  85.6877 0006162 138.7291 221.4392 14.88295553 28546
CSG-3                   
1 67304U 26001A   26157.46483848  .00000370  00000+0  53025-4 0  9993
2 67304  97.8887 341.2223 0001329  95.2716 264.8649 14.82161770 22876
PRSC-E03                
1 68835U 26092A   26157.84909472  .00002545  00000+0  17567-3 0  9997
2 68835  37.9994 150.6406 0005225 294.0288  65.9926 15.06619623  6396
CAS500-2                
1 69013U 26100AK  26157.62280713  .00007558  00000+0  34869-3 0  9995
2 69013  97.4078  55.6607 0011511  67.5940 292.6514 15.20462654  5206
